{
    "links": {
        "self": "http://www.neowsapp.com/rest/v1/neo/3465691?api_key=iIulBulltgU6a56xZRHN4H3l9WmuAYTsLGpBGhQ2"
    },
    "id": "3465691",
    "neo_reference_id": "3465691",
    "name": "(2009 PR1)",
    "designation": "2009 PR1",
    "nasa_jpl_url": "http://ssd.jpl.nasa.gov/sbdb.cgi?sstr=3465691",
    "absolute_magnitude_h": 24.6,
    "estimated_diameter": {
        "kilometers": {
            "estimated_diameter_min": 0.0319561887,
            "estimated_diameter_max": 0.0714562102
        },
        "meters": {
            "estimated_diameter_min": 31.9561886721,
            "estimated_diameter_max": 71.4562101727
        },
        "miles": {
            "estimated_diameter_min": 0.0198566489,
            "estimated_diameter_max": 0.0444008168
        },
        "feet": {
            "estimated_diameter_min": 104.8431420431,
            "estimated_diameter_max": 234.436392583
        }
    },
    "is_potentially_hazardous_asteroid": false,
    "close_approach_data": [
        {
            "close_approach_date": "2009-08-12",
            "close_approach_date_full": "2009-Aug-12 15:48",
            "epoch_date_close_approach": 1250092080000,
            "relative_velocity": {
                "kilometers_per_second": "6.7339636792",
                "kilometers_per_hour": "24242.2692451195",
                "miles_per_hour": "15063.2033540022"
            },
            "miss_distance": {
                "astronomical": "0.0204799593",
                "lunar": "7.9667041677",
                "kilometers": "3063758.288966691",
                "miles": "1903731.1235786958"
            },
            "orbiting_body": "Earth"
        },
        {
            "close_approach_date": "2018-09-23",
            "close_approach_date_full": "2018-Sep-23 14:12",
            "epoch_date_close_approach": 1537711920000,
            "relative_velocity": {
                "kilometers_per_second": "19.3188703837",
                "kilometers_per_hour": "69547.9333812325",
                "miles_per_hour": "43214.3811612442"
            },
            "miss_distance": {
                "astronomical": "0.4924688136",
                "lunar": "191.5703684904",
                "kilometers": "73672285.555987032",
                "miles": "45777835.4980517616"
            },
            "orbiting_body": "Earth"
        },
        {
            "close_approach_date": "2098-09-11",
            "close_approach_date_full": "2098-Sep-11 15:04",
            "epoch_date_close_approach": 4061286240000,
            "relative_velocity": {
                "kilometers_per_second": "13.1661707074",
                "kilometers_per_hour": "47398.2145467361",
                "miles_per_hour": "29451.4072554428"
            },
            "miss_distance": {
                "astronomical": "0.2763583001",
                "lunar": "107.5033787389",
                "kilometers": "41342613.051780787",
                "miles": "25689108.5305853806"
            },
            "orbiting_body": "Earth"
        }
    ],
    "orbital_data": {
        "orbit_id": "11",
        "orbit_determination_date": "2017-04-06 09:00:17",
        "first_observation_date": "2009-08-14",
        "last_observation_date": "2009-08-26",
        "data_arc_in_days": 12,
        "observations_used": 38,
        "orbit_uncertainty": "7",
        "minimum_orbit_intersection": ".0159529",
        "jupiter_tisserand_invariant": "4.500",
        "epoch_osculation": "2459000.5",
        "eccentricity": ".3119434622057127",
        "semi_major_axis": "1.488540968793484",
        "inclination": "8.646368434603254",
        "ascending_node_longitude": "139.0435958872163",
        "orbital_period": "663.3452369215264",
        "perihelion_distance": "1.024200345352999",
        "perihelion_argument": "167.5039760279984",
        "aphelion_distance": "1.952881592233969",
        "perihelion_time": "2459023.871607878483",
        "mean_anomaly": "347.3161389153847",
        "mean_motion": ".5427038289604662",
        "equinox": "J2000",
        "orbit_class": {
            "orbit_class_type": "AMO",
            "orbit_class_description": "Near-Earth asteroid orbits similar to that of 1221 Amor",
            "orbit_class_range": "1.017 AU < q (perihelion) < 1.3 AU"
        }
    },
    "is_sentry_object": false
}